[{"OBJECT_NAME":"INMARSAT 4-F2 (SOUTHPAN/PRN 122)","OBJECT_ID":"2005-044A","EPOCH":"2026-04-26T17:40:18.353856","MEAN_MOTION":1.00270978,"ECCENTRICITY":0.0002738,"INCLINATION":5.0308,"RA_OF_ASC_NODE":43.76,"ARG_OF_PERICENTER":349.2893,"MEAN_ANOMALY":230.2135,"EPHEMERIS_TYPE":0,"CLASSIFICATION_TYPE":"U","NORAD_CAT_ID":28899,"ELEMENT_SET_NO":999,"REV_AT_EPOCH":7500,"BSTAR":0,"MEAN_MOTION_DOT":-2.7e-6,"MEAN_MOTION_DDOT":0},{"OBJECT_NAME":"GSAT-8 (GAGAN/PRN 127)","OBJECT_ID":"2011-022A","EPOCH":"2026-04-26T18:22:38.798976","MEAN_MOTION":1.00270458,"ECCENTRICITY":0.0004744,"INCLINATION":2.0001,"RA_OF_ASC_NODE":82.4175,"ARG_OF_PERICENTER":227.2999,"MEAN_ANOMALY":235.7789,"EPHEMERIS_TYPE":0,"CLASSIFICATION_TYPE":"U","NORAD_CAT_ID":37605,"ELEMENT_SET_NO":999,"REV_AT_EPOCH":5270,"BSTAR":0,"MEAN_MOTION_DOT":7.5e-7,"MEAN_MOTION_DDOT":0},{"OBJECT_NAME":"LUCH 5A (SDCM/PRN 140)","OBJECT_ID":"2011-074B","EPOCH":"2026-04-26T21:26:57.536736","MEAN_MOTION":1.00272956,"ECCENTRICITY":0.0002737,"INCLINATION":8.6266,"RA_OF_ASC_NODE":74.5466,"ARG_OF_PERICENTER":304.8764,"MEAN_ANOMALY":324.1316,"EPHEMERIS_TYPE":0,"CLASSIFICATION_TYPE":"U","NORAD_CAT_ID":37951,"ELEMENT_SET_NO":999,"REV_AT_EPOCH":5253,"BSTAR":0,"MEAN_MOTION_DOT":-5.5e-7,"MEAN_MOTION_DDOT":0},{"OBJECT_NAME":"SES-5 (EGNOS/PRN 136)","OBJECT_ID":"2012-036A","EPOCH":"2026-04-26T17:00:50.692320","MEAN_MOTION":1.00271509,"ECCENTRICITY":0.0002088,"INCLINATION":0.0594,"RA_OF_ASC_NODE":300.4218,"ARG_OF_PERICENTER":91.2198,"MEAN_ANOMALY":83.2535,"EPHEMERIS_TYPE":0,"CLASSIFICATION_TYPE":"U","NORAD_CAT_ID":38652,"ELEMENT_SET_NO":999,"REV_AT_EPOCH":4394,"BSTAR":0,"MEAN_MOTION_DOT":2.2e-7,"MEAN_MOTION_DDOT":0},{"OBJECT_NAME":"GSAT-10 (GAGAN/PRN 128)","OBJECT_ID":"2012-051B","EPOCH":"2026-04-26T18:46:38.592768","MEAN_MOTION":1.00270039,"ECCENTRICITY":0.0007003,"INCLINATION":0.0232,"RA_OF_ASC_NODE":263.399,"ARG_OF_PERICENTER":178.5582,"MEAN_ANOMALY":137.4494,"EPHEMERIS_TYPE":0,"CLASSIFICATION_TYPE":"U","NORAD_CAT_ID":38779,"ELEMENT_SET_NO":999,"REV_AT_EPOCH":4958,"BSTAR":0,"MEAN_MOTION_DOT":-1.76e-6,"MEAN_MOTION_DDOT":0},{"OBJECT_NAME":"LUCH 5B (SDCM/PRN 125)","OBJECT_ID":"2012-061A","EPOCH":"2026-04-26T15:12:01.128096","MEAN_MOTION":1.00271594,"ECCENTRICITY":0.0001747,"INCLINATION":10.3758,"RA_OF_ASC_NODE":50.386,"ARG_OF_PERICENTER":214.428,"MEAN_ANOMALY":161.5503,"EPHEMERIS_TYPE":0,"CLASSIFICATION_TYPE":"U","NORAD_CAT_ID":38977,"ELEMENT_SET_NO":999,"REV_AT_EPOCH":4909,"BSTAR":0,"MEAN_MOTION_DOT":-1.44e-6,"MEAN_MOTION_DDOT":0},{"OBJECT_NAME":"ASTRA 5B (EGNOS/PRN 123)","OBJECT_ID":"2014-011B","EPOCH":"2026-04-26T20:31:24.953088","MEAN_MOTION":1.00269765,"ECCENTRICITY":0.0002683,"INCLINATION":0.0675,"RA_OF_ASC_NODE":307.7565,"ARG_OF_PERICENTER":65.8,"MEAN_ANOMALY":172.6426,"EPHEMERIS_TYPE":0,"CLASSIFICATION_TYPE":"U","NORAD_CAT_ID":39617,"ELEMENT_SET_NO":999,"REV_AT_EPOCH":4415,"BSTAR":0,"MEAN_MOTION_DOT":1.25e-6,"MEAN_MOTION_DDOT":0},{"OBJECT_NAME":"LUCH 5V (SDCM/PRN 141)","OBJECT_ID":"2014-023A","EPOCH":"2026-04-26T21:25:24.341376","MEAN_MOTION":1.00271833,"ECCENTRICITY":0.0002232,"INCLINATION":5.0093,"RA_OF_ASC_NODE":70.2471,"ARG_OF_PERICENTER":339.197,"MEAN_ANOMALY":221.5602,"EPHEMERIS_TYPE":0,"CLASSIFICATION_TYPE":"U","NORAD_CAT_ID":39727,"ELEMENT_SET_NO":999,"REV_AT_EPOCH":4384,"BSTAR":0,"MEAN_MOTION_DOT":-2.76e-6,"MEAN_MOTION_DDOT":0},{"OBJECT_NAME":"GSAT-15 (GAGAN/PRN 139)","OBJECT_ID":"2015-065A","EPOCH":"2026-04-26T21:12:21.502080","MEAN_MOTION":1.00271989,"ECCENTRICITY":0.0003724,"INCLINATION":0.0683,"RA_OF_ASC_NODE":257.0979,"ARG_OF_PERICENTER":145.0037,"MEAN_ANOMALY":224.3792,"EPHEMERIS_TYPE":0,"CLASSIFICATION_TYPE":"U","NORAD_CAT_ID":41028,"ELEMENT_SET_NO":999,"REV_AT_EPOCH":3828,"BSTAR":0,"MEAN_MOTION_DOT":-2.69e-6,"MEAN_MOTION_DDOT":0},{"OBJECT_NAME":"EUTELSAT 117 WEST B (WAAS/PRN 131)","OBJECT_ID":"2016-038B","EPOCH":"2026-04-26T17:19:37.591104","MEAN_MOTION":1.00271872,"ECCENTRICITY":5.5e-6,"INCLINATION":0.0117,"RA_OF_ASC_NODE":96.3523,"ARG_OF_PERICENTER":20.2428,"MEAN_ANOMALY":241.0426,"EPHEMERIS_TYPE":0,"CLASSIFICATION_TYPE":"U","NORAD_CAT_ID":41589,"ELEMENT_SET_NO":999,"REV_AT_EPOCH":3614,"BSTAR":0,"MEAN_MOTION_DOT":-2.3e-7,"MEAN_MOTION_DDOT":0},{"OBJECT_NAME":"SES-15 (WAAS/PRN 133)","OBJECT_ID":"2017-026A","EPOCH":"2026-04-26T17:24:46.065888","MEAN_MOTION":1.00269771,"ECCENTRICITY":6.32e-5,"INCLINATION":0.0245,"RA_OF_ASC_NODE":325.6634,"ARG_OF_PERICENTER":43.2935,"MEAN_ANOMALY":337.8043,"EPHEMERIS_TYPE":0,"CLASSIFICATION_TYPE":"U","NORAD_CAT_ID":42709,"ELEMENT_SET_NO":999,"REV_AT_EPOCH":691,"BSTAR":0,"MEAN_MOTION_DOT":4.8e-7,"MEAN_MOTION_DDOT":0},{"OBJECT_NAME":"QZS-2 (QZSS/PRN 194)","OBJECT_ID":"2017-028A","EPOCH":"2026-04-26T05:37:22.429632","MEAN_MOTION":1.0024752,"ECCENTRICITY":0.07403185,"INCLINATION":39.5095,"RA_OF_ASC_NODE":243.912,"ARG_OF_PERICENTER":270.8047,"MEAN_ANOMALY":281.9812,"EPHEMERIS_TYPE":0,"CLASSIFICATION_TYPE":"U","NORAD_CAT_ID":42738,"ELEMENT_SET_NO":999,"REV_AT_EPOCH":710,"BSTAR":0,"MEAN_MOTION_DOT":-2.66e-6,"MEAN_MOTION_DDOT":0},{"OBJECT_NAME":"QZS-3 (QZSS/PRN 199)","OBJECT_ID":"2017-048A","EPOCH":"2026-04-26T19:18:16.968384","MEAN_MOTION":1.0027098,"ECCENTRICITY":0.0001351,"INCLINATION":0.0515,"RA_OF_ASC_NODE":181.6132,"ARG_OF_PERICENTER":201.9551,"MEAN_ANOMALY":247.8384,"EPHEMERIS_TYPE":0,"CLASSIFICATION_TYPE":"U","NORAD_CAT_ID":42917,"ELEMENT_SET_NO":999,"REV_AT_EPOCH":3174,"BSTAR":0,"MEAN_MOTION_DOT":-3.59e-6,"MEAN_MOTION_DDOT":0},{"OBJECT_NAME":"QZS-4 (QZSS/PRN 195)","OBJECT_ID":"2017-062A","EPOCH":"2026-04-22T16:00:20.725056","MEAN_MOTION":1.00266456,"ECCENTRICITY":0.07466255,"INCLINATION":40.1416,"RA_OF_ASC_NODE":344.1915,"ARG_OF_PERICENTER":270.8161,"MEAN_ANOMALY":335.9811,"EPHEMERIS_TYPE":0,"CLASSIFICATION_TYPE":"U","NORAD_CAT_ID":42965,"ELEMENT_SET_NO":999,"REV_AT_EPOCH":3124,"BSTAR":0,"MEAN_MOTION_DOT":-3.26e-6,"MEAN_MOTION_DDOT":0},{"OBJECT_NAME":"BEIDOU-3 G1 (PRN 130)","OBJECT_ID":"2018-085A","EPOCH":"2026-04-26T20:41:59.117856","MEAN_MOTION":1.00265466,"ECCENTRICITY":0.0007375,"INCLINATION":2.9462,"RA_OF_ASC_NODE":98.7329,"ARG_OF_PERICENTER":333.4418,"MEAN_ANOMALY":253.1094,"EPHEMERIS_TYPE":0,"CLASSIFICATION_TYPE":"U","NORAD_CAT_ID":43683,"ELEMENT_SET_NO":999,"REV_AT_EPOCH":2754,"BSTAR":0,"MEAN_MOTION_DOT":-1.19e-6,"MEAN_MOTION_DDOT":0},{"OBJECT_NAME":"EUTELSAT 5 WEST B (EGNOS/PRN 121)","OBJECT_ID":"2019-067A","EPOCH":"2026-04-26T19:47:38.565024","MEAN_MOTION":1.00271487,"ECCENTRICITY":0.0003179,"INCLINATION":0.0692,"RA_OF_ASC_NODE":10.8416,"ARG_OF_PERICENTER":24.9586,"MEAN_ANOMALY":110.9244,"EPHEMERIS_TYPE":0,"CLASSIFICATION_TYPE":"U","NORAD_CAT_ID":44624,"ELEMENT_SET_NO":999,"REV_AT_EPOCH":2392,"BSTAR":0,"MEAN_MOTION_DOT":-5.4e-7,"MEAN_MOTION_DDOT":0},{"OBJECT_NAME":"BEIDOU-3 G2 (PRN 144)","OBJECT_ID":"2020-017A","EPOCH":"2026-04-26T19:04:55.748352","MEAN_MOTION":1.00271463,"ECCENTRICITY":0.0002531,"INCLINATION":2.7632,"RA_OF_ASC_NODE":46.5324,"ARG_OF_PERICENTER":347.811,"MEAN_ANOMALY":186.7221,"EPHEMERIS_TYPE":0,"CLASSIFICATION_TYPE":"U","NORAD_CAT_ID":45344,"ELEMENT_SET_NO":999,"REV_AT_EPOCH":2274,"BSTAR":0,"MEAN_MOTION_DOT":-1.5e-6,"MEAN_MOTION_DDOT":0}]
